OBJECT_NAME,OBJECT_ID,EPOCH,MEAN_MOTION,ECCENTRICITY,INCLINATION,RA_OF_ASC_NODE,ARG_OF_PERICENTER,MEAN_ANOMALY,EPHEMERIS_TYPE,CLASSIFICATION_TYPE,NORAD_CAT_ID,ELEMENT_SET_NO,REV_AT_EPOCH,BSTAR,MEAN_MOTION_DOT,MEAN_MOTION_DDOT
LEMUR-2-FINNIAN,2025-276DX,2026-06-24T03:35:10.588704,15.00446823,.00087011,97.5309,245.9209,68.8843,291.3311,0,U,66782,999,2104,.3676334E-3,.4572E-4,0
LEMUR-2-STARLIGHT,2025-276DY,2026-06-24T04:17:23.752032,14.99104764,.00148116,97.5246,245.5789,108.1912,252.0925,0,U,66783,999,3124,.44308412E-3,.5339E-4,0
LEMUR-2-TARTIFLETTE,2025-276DZ,2026-06-24T04:15:02.757600,14.99122079,.00137377,97.5250,245.5846,114.8677,245.3976,0,U,66784,999,3124,.36242722E-3,.4357E-4,0
LEMUR-2-VUKASIN,2025-276EA,2026-06-24T03:57:11.399328,15.00414722,.00051353,97.5313,245.8884,104.6973,255.4821,0,U,66785,999,3119,.58376374E-4,.677E-5,0
LEMUR-2-HOTSPUR-TOM,2025-276EB,2026-06-24T04:05:02.393376,14.99021589,.00149946,97.5249,245.5577,107.4071,252.8793,0,U,66786,999,3117,.38565887E-3,.463E-4,0
LEMUR-2-MYRA,2025-276EC,2026-06-24T04:43:14.855808,15.00331369,.00174334,97.5218,245.8478,118.7242,241.5736,0,U,66787,999,3126,.50749821E-3,.633E-4,0
LEMUR-2 FIKRETDENGIZ,2026-004A,2026-06-24T06:15:25.323264,14.88367790,.0010463,97.8018,173.7100,113.1090,247.1230,0,U,67363,999,2433,.38039127E-3,.3472E-4,0
TWILIGHT-1 OBJECT B,2026-004B,2026-06-23T22:50:42.532224,14.87722097,.00102111,97.8063,173.4181,105.3485,254.8861,0,U,67364,999,2429,.17071141E-3,.1503E-4,0
LEMUR-2-MARIO-SOUSA,2026-004C,2026-06-24T05:50:31.341984,14.88561761,.0010051,97.7990,173.6888,113.9420,246.2851,0,U,67365,999,2434,.36529478E-3,.3348E-4,0
LEMUR-2-SONNENBLUME,2026-004E,2026-06-24T05:49:36.933312,14.88346819,.00095648,97.7984,173.6698,115.3972,244.8236,0,U,67367,999,2434,.23777568E-3,.2148E-4,0
LEMUR-2-WOBLER,2026-004F,2026-06-24T05:38:50.129952,14.88557800,.00099546,97.8041,173.7916,106.5734,253.6577,0,U,67368,999,2434,.33217927E-3,.3039E-4,0
LEMUR-2-GRAM-E-SUE,2026-004H,2026-06-23T22:58:31.287648,14.88496084,.00086088,97.7974,173.4044,117.4161,242.7932,0,U,67370,999,2430,.21424361E-3,.1937E-4,0
LEMUR-2-KATIE,2026-004AA,2026-06-24T00:06:32.978304,14.90083199,.00047765,97.8034,173.9323,79.2060,280.9695,0,U,67387,999,2432,.33544171E-3,.3187E-4,0
LEMUR-2-HCS-BAZUS,2026-004AB,2026-06-24T06:31:46.015104,14.90127797,.00042657,97.8023,174.1769,76.7677,283.4016,0,U,67388,999,2436,.51765326E-3,.4954E-4,0
