LEMUR-2-FINNIAN         
1 66782U 25276DX  26175.14942811  .00004572  00000+0  36763-3 0  9997
2 66782  97.5309 245.9209 0008701  68.8843 291.3311 15.00446823 21048
LEMUR-2-STARLIGHT       
1 66783U 25276DY  26175.17874713  .00005339  00000+0  44308-3 0  9992
2 66783  97.5246 245.5789 0014811 108.1912 252.0925 14.99104764 31242
LEMUR-2-TARTIFLETTE     
1 66784U 25276DZ  26175.17711525  .00004357  00000+0  36243-3 0  9992
2 66784  97.5250 245.5846 0013737 114.8677 245.3976 14.99122079 31240
LEMUR-2-VUKASIN         
1 66785U 25276EA  26175.16471527  .00000677  00000+0  58376-4 0  9990
2 66785  97.5313 245.8884 0005135 104.6973 255.4821 15.00414722 31192
LEMUR-2-HOTSPUR-TOM     
1 66786U 25276EB  26175.17016659  .00004630  00000+0  38566-3 0  9994
2 66786  97.5249 245.5577 0014994 107.4071 252.8793 14.99021589 31179
LEMUR-2-MYRA            
1 66787U 25276EC  26175.19669972  .00006330  00000+0  50750-3 0  9997
2 66787  97.5218 245.8478 0017433 118.7242 241.5736 15.00331369 31260
LEMUR-2 FIKRETDENGIZ    
1 67363U 26004A   26175.26070976  .00003472  00000+0  38039-3 0  9996
2 67363  97.8018 173.7100 0010463 113.1090 247.1230 14.88367790 24332
TWILIGHT-1 OBJECT B     
1 67364U 26004B   26174.95188116  .00001503  00000+0  17071-3 0  9994
2 67364  97.8063 173.4181 0010211 105.3485 254.8861 14.87722097 24295
LEMUR-2-MARIO-SOUSA     
1 67365U 26004C   26175.24341831  .00003348  00000+0  36529-3 0  9991
2 67365  97.7990 173.6888 0010051 113.9420 246.2851 14.88561761 24346
LEMUR-2-SONNENBLUME     
1 67367U 26004E   26175.24278858  .00002148  00000+0  23778-3 0  9990
2 67367  97.7984 173.6698 0009564 115.3972 244.8236 14.88346819 24341
LEMUR-2-WOBLER          
1 67368U 26004F   26175.23530243  .00003039  00000+0  33218-3 0  9999
2 67368  97.8041 173.7916 0009954 106.5734 253.6577 14.88557800 24342
LEMUR-2-GRAM-E-SUE      
1 67370U 26004H   26174.95730657  .00001937  00000+0  21424-3 0  9992
2 67370  97.7974 173.4044 0008608 117.4161 242.7932 14.88496084 24304
LEMUR-2-KATIE           
1 67387U 26004AA  26175.00454836  .00003187  00000+0  33544-3 0  9994
2 67387  97.8034 173.9323 0004776  79.2060 280.9695 14.90083199 24324
LEMUR-2-HCS-BAZUS       
1 67388U 26004AB  26175.27206036  .00004954  00000+0  51765-3 0  9999
2 67388  97.8023 174.1769 0004265  76.7677 283.4016 14.90127797 24361
